HAWK-11C                
1 62381U 24247E   26068.51221537  .00009223  00000+0  33290-3 0  9992
2 62381  45.0045 114.8762 0005900 329.7040  30.3502 15.28848020 67743
STARLINK-35158          
1 66381U 25257B   26068.72436884  .00022651  00000+0  77466-3 0  9997
2 66381  53.1596 217.2318 0001000  90.2549 269.8567 15.30195403 19733
